[{"OBJECT_NAME":"STARLINK-1193","OBJECT_ID":"2020-006BJ","EPOCH":"2026-03-10T00:00:02.999808","MEAN_MOTION":15.55787622,"ECCENTRICITY":0.00018468,"INCLINATION":53.052,"RA_OF_ASC_NODE":228.9273,"ARG_OF_PERICENTER":4.2814,"MEAN_ANOMALY":156.1265,"EPHEMERIS_TYPE":0,"CLASSIFICATION_TYPE":"U","NORAD_CAT_ID":45100,"ELEMENT_SET_NO":999,"REV_AT_EPOCH":587,"BSTAR":0.0019633041,"MEAN_MOTION_DOT":0.00139916,"MEAN_MOTION_DDOT":0},{"OBJECT_NAME":"DELTA 1 DEB","OBJECT_ID":"1970-021C","EPOCH":"2026-03-05T21:34:14.621376","MEAN_MOTION":3.26680391,"ECCENTRICITY":0.65090351,"INCLINATION":25.6787,"RA_OF_ASC_NODE":293.2155,"ARG_OF_PERICENTER":271.6963,"MEAN_ANOMALY":20.2684,"EPHEMERIS_TYPE":0,"CLASSIFICATION_TYPE":"U","NORAD_CAT_ID":5975,"ELEMENT_SET_NO":999,"REV_AT_EPOCH":36954,"BSTAR":0.0011148045,"MEAN_MOTION_DOT":1.753e-5,"MEAN_MOTION_DDOT":0}]
